{
  "type": "FeatureCollection",
  "name": "thermalguard_osm_seed",
  "crs": {
    "type": "name",
    "properties": {
      "name": "urn:ogc:def:crs:OGC:1.3:CRS84"
    }
  },
  "features": [
    {
      "type": "Feature",
      "properties": {
        "kind": "industrial",
        "name": "Jharia Colliery Block A"
      },
      "geometry": {
        "type": "Polygon",
        "coordinates": [
          [
            [86.29, 23.695],
            [86.29, 23.79],
            [86.385, 23.79],
            [86.385, 23.695]
          ]
        ]
      }
    },
    {
      "type": "Feature",
      "properties": {
        "kind": "industrial",
        "name": "Jharia Colliery Block B"
      },
      "geometry": {
        "type": "Polygon",
        "coordinates": [
          [
            [86.385, 23.78],
            [86.385, 23.85],
            [86.475, 23.85],
            [86.475, 23.78]
          ]
        ]
      }
    },
    {
      "type": "Feature",
      "properties": {
        "kind": "residential",
        "name": "Dhanbad City"
      },
      "geometry": {
        "type": "Polygon",
        "coordinates": [
          [
            [86.42, 23.748],
            [86.42, 23.772],
            [86.45, 23.772],
            [86.45, 23.748]
          ]
        ]
      }
    },
    {
      "type": "Feature",
      "properties": {
        "kind": "industrial",
        "name": "Jamnagar Refinery Complex"
      },
      "geometry": {
        "type": "Polygon",
        "coordinates": [
          [
            [69.972, 22.428],
            [69.972, 22.502],
            [70.058, 22.502],
            [70.058, 22.428]
          ]
        ]
      }
    },
    {
      "type": "Feature",
      "properties": {
        "kind": "industrial",
        "name": "Gujarat Industrial Estate"
      },
      "geometry": {
        "type": "Polygon",
        "coordinates": [
          [
            [70.175, 22.355],
            [70.175, 22.422],
            [70.243, 22.422],
            [70.243, 22.355]
          ]
        ]
      }
    },
    {
      "type": "Feature",
      "properties": {
        "kind": "residential",
        "name": "Jamnagar City"
      },
      "geometry": {
        "type": "Polygon",
        "coordinates": [
          [
            [70.055, 22.458],
            [70.055, 22.502],
            [70.105, 22.502],
            [70.105, 22.458]
          ]
        ]
      }
    },
    {
      "type": "Feature",
      "properties": {
        "kind": "agricultural",
        "name": "Farmland Punjab SW"
      },
      "geometry": {
        "type": "Polygon",
        "coordinates": [
          [
            [74.7, 30.15],
            [74.7, 30.8],
            [75.55, 30.8],
            [75.55, 30.15]
          ]
        ]
      }
    },
    {
      "type": "Feature",
      "properties": {
        "kind": "agricultural",
        "name": "Farmland Punjab S"
      },
      "geometry": {
        "type": "Polygon",
        "coordinates": [
          [
            [75.55, 30.15],
            [75.55, 30.8],
            [76.25, 30.8],
            [76.25, 30.15]
          ]
        ]
      }
    },
    {
      "type": "Feature",
      "properties": {
        "kind": "agricultural",
        "name": "Farmland Punjab NW"
      },
      "geometry": {
        "type": "Polygon",
        "coordinates": [
          [
            [74.7, 30.8],
            [74.7, 31.35],
            [75.55, 31.35],
            [75.55, 30.8]
          ]
        ]
      }
    },
    {
      "type": "Feature",
      "properties": {
        "kind": "agricultural",
        "name": "Farmland Punjab N"
      },
      "geometry": {
        "type": "Polygon",
        "coordinates": [
          [
            [75.55, 30.8],
            [75.55, 31.35],
            [76.25, 31.35],
            [76.25, 30.8]
          ]
        ]
      }
    },
    {
      "type": "Feature",
      "properties": {
        "kind": "agricultural",
        "name": "Farmland Punjab E"
      },
      "geometry": {
        "type": "Polygon",
        "coordinates": [
          [
            [76.25, 30.15],
            [76.25, 31.35],
            [76.95, 31.35],
            [76.95, 30.15]
          ]
        ]
      }
    },
    {
      "type": "Feature",
      "properties": {
        "kind": "residential",
        "name": "Ludhiana City"
      },
      "geometry": {
        "type": "Polygon",
        "coordinates": [
          [
            [75.835, 30.875],
            [75.835, 30.93],
            [75.9, 30.93],
            [75.9, 30.875]
          ]
        ]
      }
    },
    {
      "type": "Feature",
      "properties": {
        "kind": "forest",
        "name": "Almora Forest Range"
      },
      "geometry": {
        "type": "Polygon",
        "coordinates": [
          [
            [79.05, 30.0],
            [79.05, 30.16],
            [79.32, 30.16],
            [79.32, 30.0]
          ]
        ]
      }
    },
    {
      "type": "Feature",
      "properties": {
        "kind": "residential",
        "name": "Pithoragarh Town"
      },
      "geometry": {
        "type": "Polygon",
        "coordinates": [
          [
            [79.265, 30.055],
            [79.265, 30.11],
            [79.33, 30.11],
            [79.33, 30.055]
          ]
        ]
      }
    }
  ]
}